[{"COMMENT":"GENERATED VIA SPACETRACK.ORG API","ORIGINATOR":"18 SPCS","NORAD_CAT_ID":"43477","OBJECT_NAME":"GRACE-FO 2","OBJECT_TYPE":"PAYLOAD","CLASSIFICATION_TYPE":"U","INTLDES":"18047B","EPOCH":"2023-12-21 03:16:20","EPOCH_MICROSECONDS":"741952","MEAN_MOTION":"15.27629481","ECCENTRICITY":"0.0015816","INCLINATION":"88.9821","RA_OF_ASC_NODE":"323.7059","ARG_OF_PERICENTER":"47.4192","MEAN_ANOMALY":"312.8388","EPHEMERIS_TYPE":"0","ELEMENT_SET_NO":"999","REV_AT_EPOCH":"31052","BSTAR":"0.00019783","MEAN_MOTION_DOT":"0.00005387","MEAN_MOTION_DDOT":"0","FILE":"4141369","TLE_LINE0":"0 GRACE-FO 2","TLE_LINE1":"1 43477U 18047B   23355.13635118  .00005387  00000-0  19783-3 0  9995","TLE_LINE2":"2 43477  88.9821 323.7059 0015816  47.4192 312.8388 15.27629481310529","OBJECT_ID":"2018-047B","OBJECT_NUMBER":"43477","SEMIMAJOR_AXIS":"6861.038","PERIOD":"94.264","APOGEE":"493.754","PERIGEE":"472.052","DECAYED":"0"},{"COMMENT":"GENERATED VIA SPACETRACK.ORG API","ORIGINATOR":"18 SPCS","NORAD_CAT_ID":"43477","OBJECT_NAME":"GRACE-FO 2","OBJECT_TYPE":"PAYLOAD","CLASSIFICATION_TYPE":"U","INTLDES":"18047B","EPOCH":"2023-12-21 14:16:39","EPOCH_MICROSECONDS":"105120","MEAN_MOTION":"15.27634241","ECCENTRICITY":"0.0015746","INCLINATION":"88.9821","RA_OF_ASC_NODE":"323.6431","ARG_OF_PERICENTER":"45.9299","MEAN_ANOMALY":"314.3244","EPHEMERIS_TYPE":"0","ELEMENT_SET_NO":"999","REV_AT_EPOCH":"31059","BSTAR":"0.00019469","MEAN_MOTION_DOT":"0.00005303","MEAN_MOTION_DDOT":"0","FILE":"4141803","TLE_LINE0":"0 GRACE-FO 2","TLE_LINE1":"1 43477U 18047B   23355.59489705  .00005303  00000-0  19469-3 0  9993","TLE_LINE2":"2 43477  88.9821 323.6431 0015746  45.9299 314.3244 15.27634241310590","OBJECT_ID":"2018-047B","OBJECT_NUMBER":"43477","SEMIMAJOR_AXIS":"6861.024","PERIOD":"94.263","APOGEE":"493.692","PERIGEE":"472.085","DECAYED":"0"},{"COMMENT":"GENERATED VIA SPACETRACK.ORG API","ORIGINATOR":"18 SPCS","NORAD_CAT_ID":"43477","OBJECT_NAME":"GRACE-FO 2","OBJECT_TYPE":"PAYLOAD","CLASSIFICATION_TYPE":"U","INTLDES":"18047B","EPOCH":"2023-12-21 22:08:17","EPOCH_MICROSECONDS":"841408","MEAN_MOTION":"15.27638212","ECCENTRICITY":"0.00157","INCLINATION":"88.982","RA_OF_ASC_NODE":"323.5982","ARG_OF_PERICENTER":"44.8307","MEAN_ANOMALY":"315.4208","EPHEMERIS_TYPE":"0","ELEMENT_SET_NO":"999","REV_AT_EPOCH":"31064","BSTAR":"0.00019766","MEAN_MOTION_DOT":"0.00005384","MEAN_MOTION_DDOT":"0","FILE":"4141951","TLE_LINE0":"0 GRACE-FO 2","TLE_LINE1":"1 43477U 18047B   23355.92242872  .00005384  00000-0  19766-3 0  9991","TLE_LINE2":"2 43477  88.9820 323.5982 0015700  44.8307 315.4208 15.27638212310647","OBJECT_ID":"2018-047B","OBJECT_NUMBER":"43477","SEMIMAJOR_AXIS":"6861.012","PERIOD":"94.263","APOGEE":"493.649","PERIGEE":"472.105","DECAYED":"0"},{"COMMENT":"GENERATED VIA SPACETRACK.ORG API","ORIGINATOR":"18 SPCS","NORAD_CAT_ID":"43477","OBJECT_NAME":"GRACE-FO 2","OBJECT_TYPE":"PAYLOAD","CLASSIFICATION_TYPE":"U","INTLDES":"18047B","EPOCH":"2023-12-22 10:42:55","EPOCH_MICROSECONDS":"682784","MEAN_MOTION":"15.27644139","ECCENTRICITY":"0.0015614","INCLINATION":"88.9819","RA_OF_ASC_NODE":"323.5263","ARG_OF_PERICENTER":"43.1481","MEAN_ANOMALY":"317.0988","EPHEMERIS_TYPE":"0","ELEMENT_SET_NO":"999","REV_AT_EPOCH":"31072","BSTAR":"0.00019796","MEAN_MOTION_DOT":"0.00005393","MEAN_MOTION_DDOT":"0","FILE":"4142340","TLE_LINE0":"0 GRACE-FO 2","TLE_LINE1":"1 43477U 18047B   23356.44647781  .00005393  00000-0  19796-3 0  9990","TLE_LINE2":"2 43477  88.9819 323.5263 0015614  43.1481 317.0988 15.27644139310723","OBJECT_ID":"2018-047B","OBJECT_NUMBER":"43477","SEMIMAJOR_AXIS":"6860.994","PERIOD":"94.263","APOGEE":"493.572","PERIGEE":"472.146","DECAYED":"0"},{"COMMENT":"GENERATED VIA SPACETRACK.ORG API","ORIGINATOR":"18 SPCS","NORAD_CAT_ID":"43477","OBJECT_NAME":"GRACE-FO 2","OBJECT_TYPE":"PAYLOAD","CLASSIFICATION_TYPE":"U","INTLDES":"18047B","EPOCH":"2023-12-22 13:51:35","EPOCH_MICROSECONDS":"103168","MEAN_MOTION":"15.27646464","ECCENTRICITY":"0.001559","INCLINATION":"88.9819","RA_OF_ASC_NODE":"323.5085","ARG_OF_PERICENTER":"42.7132","MEAN_ANOMALY":"317.5326","EPHEMERIS_TYPE":"0","ELEMENT_SET_NO":"999","REV_AT_EPOCH":"31074","BSTAR":"0.00021263","MEAN_MOTION_DOT":"0.0000579","MEAN_MOTION_DDOT":"0","FILE":"4142519","TLE_LINE0":"0 GRACE-FO 2","TLE_LINE1":"1 43477U 18047B   23356.57748962  .00005790  00000-0  21263-3 0  9990","TLE_LINE2":"2 43477  88.9819 323.5085 0015590  42.7132 317.5326 15.27646464310742","OBJECT_ID":"2018-047B","OBJECT_NUMBER":"43477","SEMIMAJOR_AXIS":"6860.987","PERIOD":"94.263","APOGEE":"493.548","PERIGEE":"472.156","DECAYED":"0"},{"COMMENT":"GENERATED VIA SPACETRACK.ORG API","ORIGINATOR":"18 SPCS","NORAD_CAT_ID":"43477","OBJECT_NAME":"GRACE-FO 2","OBJECT_TYPE":"PAYLOAD","CLASSIFICATION_TYPE":"U","INTLDES":"18047B","EPOCH":"2023-12-22 21:43:13","EPOCH_MICROSECONDS":"632096","MEAN_MOTION":"15.27649444","ECCENTRICITY":"0.0015538","INCLINATION":"88.9819","RA_OF_ASC_NODE":"323.4636","ARG_OF_PERICENTER":"41.5959","MEAN_ANOMALY":"318.647","EPHEMERIS_TYPE":"0","ELEMENT_SET_NO":"999","REV_AT_EPOCH":"31079","BSTAR":"0.0001941","MEAN_MOTION_DOT":"0.00005289","MEAN_MOTION_DDOT":"0","FILE":"4142803","TLE_LINE0":"0 GRACE-FO 2","TLE_LINE1":"1 43477U 18047B   23356.90501889  .00005289  00000-0  19410-3 0  9996","TLE_LINE2":"2 43477  88.9819 323.4636 0015538  41.5959 318.6470 15.27649444310797","OBJECT_ID":"2018-047B","OBJECT_NUMBER":"43477","SEMIMAJOR_AXIS":"6860.978","PERIOD":"94.262","APOGEE":"493.504","PERIGEE":"472.183","DECAYED":"0"},{"COMMENT":"GENERATED VIA SPACETRACK.ORG API","ORIGINATOR":"18 SPCS","NORAD_CAT_ID":"43477","OBJECT_NAME":"GRACE-FO 2","OBJECT_TYPE":"PAYLOAD","CLASSIFICATION_TYPE":"U","INTLDES":"18047B","EPOCH":"2023-12-23 13:26:30","EPOCH_MICROSECONDS":"498144","MEAN_MOTION":"15.27657114","ECCENTRICITY":"0.0015417","INCLINATION":"88.9819","RA_OF_ASC_NODE":"323.3737","ARG_OF_PERICENTER":"39.4712","MEAN_ANOMALY":"320.7657","EPHEMERIS_TYPE":"0","ELEMENT_SET_NO":"999","REV_AT_EPOCH":"31089","BSTAR":"0.0002022","MEAN_MOTION_DOT":"0.00005509","MEAN_MOTION_DDOT":"0","FILE":"4143387","TLE_LINE0":"0 GRACE-FO 2","TLE_LINE1":"1 43477U 18047B   23357.56007521  .00005509  00000-0  20220-3 0  9999","TLE_LINE2":"2 43477  88.9819 323.3737 0015417  39.4712 320.7657 15.27657114310892","OBJECT_ID":"2018-047B","OBJECT_NUMBER":"43477","SEMIMAJOR_AXIS":"6860.955","PERIOD":"94.262","APOGEE":"493.398","PERIGEE":"472.243","DECAYED":"0"},{"COMMENT":"GENERATED VIA SPACETRACK.ORG API","ORIGINATOR":"18 SPCS","NORAD_CAT_ID":"43477","OBJECT_NAME":"GRACE-FO 2","OBJECT_TYPE":"PAYLOAD","CLASSIFICATION_TYPE":"U","INTLDES":"18047B","EPOCH":"2023-12-23 19:43:49","EPOCH_MICROSECONDS":"179072","MEAN_MOTION":"15.27659717","ECCENTRICITY":"0.0015375","INCLINATION":"88.9819","RA_OF_ASC_NODE":"323.3378","ARG_OF_PERICENTER":"38.59","MEAN_ANOMALY":"321.6445","EPHEMERIS_TYPE":"0","ELEMENT_SET_NO":"999","REV_AT_EPOCH":"31093","BSTAR":"0.00019859","MEAN_MOTION_DOT":"0.00005412","MEAN_MOTION_DDOT":"0","FILE":"4143469","TLE_LINE0":"0 GRACE-FO 2","TLE_LINE1":"1 43477U 18047B   23357.82209698  .00005412  00000-0  19859-3 0  9996","TLE_LINE2":"2 43477  88.9819 323.3378 0015375  38.5900 321.6445 15.27659717310936","OBJECT_ID":"2018-047B","OBJECT_NUMBER":"43477","SEMIMAJOR_AXIS":"6860.947","PERIOD":"94.262","APOGEE":"493.361","PERIGEE":"472.264","DECAYED":"0"},{"COMMENT":"GENERATED VIA SPACETRACK.ORG API","ORIGINATOR":"18 SPCS","NORAD_CAT_ID":"43477","OBJECT_NAME":"GRACE-FO 2","OBJECT_TYPE":"PAYLOAD","CLASSIFICATION_TYPE":"U","INTLDES":"18047B","EPOCH":"2023-12-23 21:18:08","EPOCH_MICROSECONDS":"842176","MEAN_MOTION":"15.27660335","ECCENTRICITY":"0.0015364","INCLINATION":"88.9819","RA_OF_ASC_NODE":"323.3288","ARG_OF_PERICENTER":"38.366","MEAN_ANOMALY":"321.8679","EPHEMERIS_TYPE":"0","ELEMENT_SET_NO":"999","REV_AT_EPOCH":"31094","BSTAR":"0.00019602","MEAN_MOTION_DOT":"0.00005342","MEAN_MOTION_DDOT":"0","FILE":"4143662","TLE_LINE0":"0 GRACE-FO 2","TLE_LINE1":"1 43477U 18047B   23357.88760234  .00005342  00000-0  19602-3 0  9998","TLE_LINE2":"2 43477  88.9819 323.3288 0015364  38.3660 321.8679 15.27660335310945","OBJECT_ID":"2018-047B","OBJECT_NUMBER":"43477","SEMIMAJOR_AXIS":"6860.946","PERIOD":"94.262","APOGEE":"493.352","PERIGEE":"472.269","DECAYED":"0"},{"COMMENT":"GENERATED VIA SPACETRACK.ORG API","ORIGINATOR":"18 SPCS","NORAD_CAT_ID":"43477","OBJECT_NAME":"GRACE-FO 2","OBJECT_TYPE":"PAYLOAD","CLASSIFICATION_TYPE":"U","INTLDES":"18047B","EPOCH":"2023-12-24 14:35:44","EPOCH_MICROSECONDS":"966112","MEAN_MOTION":"15.27668065","ECCENTRICITY":"0.001524","INCLINATION":"88.9821","RA_OF_ASC_NODE":"323.23","ARG_OF_PERICENTER":"35.9901","MEAN_ANOMALY":"324.2371","EPHEMERIS_TYPE":"0","ELEMENT_SET_NO":"999","REV_AT_EPOCH":"31105","BSTAR":"0.00020201","MEAN_MOTION_DOT":"0.00005505","MEAN_MOTION_DDOT":"0","FILE":"4144212","TLE_LINE0":"0 GRACE-FO 2","TLE_LINE1":"1 43477U 18047B   23358.60815933  .00005505  00000-0  20201-3 0  9994","TLE_LINE2":"2 43477  88.9821 323.2300 0015240  35.9901 324.2371 15.27668065311053","OBJECT_ID":"2018-047B","OBJECT_NUMBER":"43477","SEMIMAJOR_AXIS":"6860.922","PERIOD":"94.261","APOGEE":"493.243","PERIGEE":"472.331","DECAYED":"0"}]